[{"OBJECT_NAME":"OBJECT C","OBJECT_ID":"2024-092C","EPOCH":"2026-03-09T23:10:26.961312","MEAN_MOTION":15.27308901,"ECCENTRICITY":0.00097974,"INCLINATION":97.6475,"RA_OF_ASC_NODE":197.1606,"ARG_OF_PERICENTER":169.1353,"MEAN_ANOMALY":191.0098,"EPHEMERIS_TYPE":0,"CLASSIFICATION_TYPE":"U","NORAD_CAT_ID":59775,"ELEMENT_SET_NO":999,"REV_AT_EPOCH":10042,"BSTAR":0.00057925748,"MEAN_MOTION_DOT":0.00015454,"MEAN_MOTION_DDOT":0},{"OBJECT_NAME":"STARLINK-31934","OBJECT_ID":"2024-098V","EPOCH":"2026-03-09T21:57:47.126592","MEAN_MOTION":15.275847,"ECCENTRICITY":0.00012624,"INCLINATION":42.9994,"RA_OF_ASC_NODE":272.9982,"ARG_OF_PERICENTER":260.2759,"MEAN_ANOMALY":99.795,"EPHEMERIS_TYPE":0,"CLASSIFICATION_TYPE":"U","NORAD_CAT_ID":59877,"ELEMENT_SET_NO":999,"REV_AT_EPOCH":10192,"BSTAR":-0.00024836117,"MEAN_MOTION_DOT":-7.091e-5,"MEAN_MOTION_DDOT":0}]
